{
 "type": "FeatureCollection",
 "metadata": {
  "title": "Zwischen neun und neun",
  "note": "Dataset compiled from a public-domain text. Coordinates via OpenStreetMap/Nominatim; routes via OSRM (driving) / BRouter (foot).",
  "license": "CC BY-NC 4.0"
 },
 "features": [
  {
   "type": "Feature",
   "properties": {
    "group": 1,
    "story": "Chapter 1",
    "name": "Greislerladen der Frau Püchl",
    "kind": "place",
    "character": "Demba, Frau Püchl, Frau Schimek",
    "time": "kurz nach 9 Uhr",
    "gloss": "Der Greislerladen der Frau Johanna Püchl in der Wiesengasse (Lichtental, 9. Bezirk) — hier beginnt der Roman: Demba kauft ein Butterbrot, drückt die Klinke mit dem Ellbogen, lässt sich das Brot kleinschneiden und verschwindet schließlich, das Geld abgezählt auf dem Ladentisch. Zur Verortung vgl. Alexander Peers Stadtspaziergang (Wiener Zeitung, 2022).",
    "quote": "Die Greislerin in der Wiesengasse, Frau Johanna Püchl, trat an diesem Morgen gegen halb acht Uhr aus dem Laden auf die Straße.",
    "srcText": "Die Greislerin in der Wiesengasse, Frau Johanna Püchl",
    "essay": "https://www.wienerzeitung.at/h/ein-literarischer-spiegel-wiens"
   },
   "geometry": {
    "type": "Point",
    "coordinates": [
     16.358229,
     48.227866
    ]
   }
  },
  {
   "type": "Feature",
   "properties": {
    "group": 1,
    "story": "Chapter 1",
    "name": "Ecktrafik der Frau Schimek",
    "kind": "place",
    "character": "Frau Schimek",
    "time": "kurz nach 9 Uhr",
    "gloss": "Die Ecktrafik der alten Frau Schimek »in der Karl-Denk-Gasse« — der Straßenname ist im Roman umbenannt: gemeint ist die benachbarte Simon-Denk-Gasse (vgl. Alexander Peer, Wiener Zeitung, 2022). Platziert am Nordende der Gasse, der dem Greislerladen nächstgelegenen Ecke; welche Ecke genau, bleibt offen.",
    "quote": "Kurz nach neun Uhr erschien die alte Frau Schimek, der die Ecktrafik in der Karl-Denk-Gasse gehörte, zu einem längeren Plausch.",
    "srcText": "die Ecktrafik in der Karl-Denk-Gasse",
    "essay": "https://www.wienerzeitung.at/h/ein-literarischer-spiegel-wiens"
   },
   "geometry": {
    "type": "Point",
    "coordinates": [
     16.359236,
     48.226439
    ]
   }
  },
  {
   "type": "Feature",
   "properties": {
    "group": 2,
    "story": "Chapter 2",
    "name": "Bank im Liechtensteinpark",
    "kind": "place",
    "character": "Demba, Hofrat Klementi, Professor Truxa, Cyrus",
    "time": "gegen halb 10",
    "gloss": "Das Lieblingsplätzchen der beiden Gelehrten im oberen, abgelegenen Teil des Liechtensteinparks — hinter einer Sandsteingruppe verborgen, von zwei Akazien beschattet. Hier frühstückt Demba das Butterbrot aus der Wiesengasse, der Hund Cyrus frisst ihm die Extrawurst weg, und der Fußtritt für Cyrus trägt Demba die Diagnose »Haschisch!« ein. Lage der Bank hypothetisch; zur Topografie des Parks vgl. Alexander Peer (Wiener Zeitung, 2022).",
    "quote": "Auf der Bank saß Stanislaus Demba. Er war beim Frühstück.",
    "srcText": "Auf der Bank saß Stanislaus Demba",
    "essay": "https://www.wienerzeitung.at/h/ein-literarischer-spiegel-wiens"
   },
   "geometry": {
    "type": "Point",
    "coordinates": [
     16.359894,
     48.224042
    ]
   }
  },
  {
   "type": "Feature",
   "properties": {
    "group": 2,
    "story": "Chapter 2",
    "name": "Unterer Liechtensteinpark",
    "kind": "place",
    "character": "Demba, Hofrat Klementi, Professor Truxa",
    "time": "gegen halb 10",
    "gloss": "Die Gelehrten jagen dem vermeintlichen Haschischraucher nach — und vergessen dabei den an die Bank gebundenen Cyrus. Im unteren, belebten Teil des Parks verliert sich Dembas Spur im Gewühl der spielenden Kinder. Lage ungefähr (südlicher Parkteil).",
    "quote": "Als die beiden Gelehrten atemlos den unteren Teil des Parkes erreichten, war der Haschischtrunkene schon lange im Gewühle der spielenden Kinder verschwunden.",
    "srcText": "den unteren Teil des Parkes erreichten"
   },
   "geometry": {
    "type": "Point",
    "coordinates": [
     16.359,
     48.2232
    ]
   }
  },
  {
   "type": "Feature",
   "properties": {
    "group": 2,
    "story": "Chapter 2",
    "name": "Porzellangasse (Querung)",
    "kind": "place",
    "character": "Hofrat Klementi, Professor Truxa, Cyrus",
    "time": "gegen halb 10",
    "gloss": "Auf dem morgendlichen Weg in den Park: Professor Truxa hat »seine liebe Not«, den in Gedanken stehenbleibenden Hofrat heil über die Gleise der elektrischen Tramway zu bringen. Genaue Querungsstelle offen.",
    "quote": "Professor Truxa hatte seine liebe Not, den Freund beim Überqueren der Porzellangasse glücklich aus dem Gefahrenbereich der elektrischen Tramway zu bringen.",
    "srcText": "beim Überqueren der Porzellangasse"
   },
   "geometry": {
    "type": "Point",
    "coordinates": [
     16.36135,
     48.22365
    ]
   }
  },
  {
   "type": "Feature",
   "properties": {
    "group": 3,
    "story": "Chapter 3",
    "name": "Parkbank des Fräuleins",
    "kind": "place",
    "character": "Demba, Alice Leitner, Frau Buresch",
    "time": "gegen dreiviertel 10",
    "gloss": "Die Bank, auf der das Kinderfräulein Alice Leitner liest (»Hedda Gabler«) und Demba sich erschöpft niederlässt — er hebt weder Schirm noch Hut auf und flüchtet sich schließlich in die Behauptung, ein armloser Krüppel zu sein; seine Lügen-Identität (»Ingenieur in den Heurekawerken«) zitiert die Blechplakate aus Frau Püchls Laden. Der Park wird im Text nicht benannt — plausibel der belebte untere Liechtensteinpark, wo Demba kurz zuvor im Kindergewühl verschwand; Lage hypothetisch.",
    "quote": "»Weil ich ein Krüppel bin,« sagte er mit tonloser Stimme. »Es muß heraus. Ich habe keine Arme.«",
    "srcText": "Es muß heraus. Ich habe keine Arme"
   },
   "geometry": {
    "type": "Point",
    "coordinates": [
     16.358371,
     48.223185
    ]
   }
  },
  {
   "type": "Feature",
   "properties": {
    "group": 3,
    "story": "Chapter 3",
    "name": "Votivpark",
    "kind": "place",
    "gloss": "Nur Gesprächsstoff auf der Parkbank: Das Fräulein weiß zu berichten, dass im Votivpark heuer Sessel statt der Bänke aufgestellt werden sollen — vier Heller pro Person. Eine kleine Wiener Parkökonomie am Rande; Schauplatz ist der Votivpark nicht.",
    "quote": "»Im Votivpark sollen dieses Jahr Sessel aufgestellt werden statt der Bänke«, erzählte das Fräulein. »Vier Heller pro Person.«",
    "srcText": "Im Votivpark sollen dieses Jahr Sessel aufgestellt werden"
   },
   "geometry": {
    "type": "Point",
    "coordinates": [
     16.358344,
     48.215752
    ]
   }
  },
  {
   "type": "Feature",
   "properties": {
    "group": 3,
    "story": "Chapter 3",
    "name": "Maria-Theresien-Straße 18",
    "kind": "place",
    "gloss": "Alice Leitners Dienstadresse beim kaiserlichen Rat Adalbert Füchsel — die Adresse, die sich Demba partout nicht notieren kann (und deren Grund er nicht preisgeben mag); am Ende weiß er nur noch »Alice und kaiserlicher Rat Füchsel«. Nur im Dialog genannt, kein Schauplatz.",
    "quote": "»Also notieren Sie sich meine Adresse: Alice Leitner, bei Herrn kaiserlichen Rat Adalbert Füchsel, neunter Bezirk, Maria-Theresien Straße 18.«",
    "srcText": "neunter Bezirk, Maria-Theresien Straße 18"
   },
   "geometry": {
    "type": "Point",
    "coordinates": [
     16.365977,
     48.21628
    ]
   }
  },
  {
   "type": "Feature",
   "properties": {
    "group": 1,
    "story": "Chapter 1",
    "name": "Arbeitsministerium",
    "kind": "place",
    "gloss": "Das k.k. Ministerium für öffentliche Arbeiten residierte im »Fürstenhof«, Liechtensteinstraße 46–46a / Porzellangasse 33a (vgl. Wien Geschichte Wiki) — ums Eck von der Wiesengasse. Kein Wunder also, dass »der Herr aus dem Arbeitsministerium« seit Jahren täglich seinen feinen Aufschnitt bei Frau Püchl holt. Nur erwähnt, kein Schauplatz.",
    "quote": "… und der Herr aus dem Arbeitsministerium, der seit Jahren täglich einen »feinen Aufschnitt« für sein zweites Frühstück im Geschäfte der Frau Püchl erstand.",
    "srcText": "der Herr aus dem Arbeitsministerium"
   },
   "geometry": {
    "type": "Point",
    "coordinates": [
     16.360108,
     48.22128
    ]
   }
  },
  {
   "type": "Feature",
   "properties": {
    "group": 2,
    "story": "Chapter 2",
    "name": "Kunsthistorisches Museum",
    "kind": "place",
    "gloss": "Arbeitsplatz Hofrat Klementis: Direktor der altorientalischen Spezialsammlung, vorübergehend auch mit der Oberleitung der ethnographisch-anthropologischen Abteilung betraut. Nur erwähnt, kein Schauplatz.",
    "quote": "Hofrat Klementi, der Direktor der altorientalischen Spezialsammlung des kunsthistorischen Museums, derzeit vorübergehend auch mit der Oberleitung der ethnographisch-anthropologischen Abteilung betraut, muß den Lesern wohl nicht erst vorgestellt werden.",
    "srcText": "der altorientalischen Spezialsammlung des kunsthistorischen Museums"
   },
   "geometry": {
    "type": "Point",
    "coordinates": [
     16.361782,
     48.203739
    ]
   }
  },
  {
   "type": "Feature",
   "properties": {
    "group": 2,
    "story": "Chapter 2",
    "name": "Konsular-Akademie",
    "kind": "place",
    "gloss": "Lehrstätte Professor Ritter von Truxas. Die k.u.k. Konsularakademie bezog 1904 ihren Neubau in der Waisenhausgasse (seit 1913 Boltzmanngasse 16) — wenige Gehminuten vom Liechtensteinpark, wo die Gelehrten ihre Morgenrunde drehen. Nur erwähnt, kein Schauplatz.",
    "quote": "Professor Ritter von Truxa, wirkliches Mitglied der Akademie der Wissenschaften (philosophisch-historische Klasse) und Lehrer an der Konsular-Akademie, ist weniger bekannt.",
    "srcText": "und Lehrer an der Konsular-Akademie"
   },
   "geometry": {
    "type": "Point",
    "coordinates": [
     16.356794,
     48.22292
    ]
   }
  },
  {
   "type": "Feature",
   "properties": {
    "group": 2,
    "story": "Chapter 2",
    "name": "Akademie der Wissenschaften",
    "kind": "place",
    "gloss": "Truxa ist wirkliches Mitglied (philosophisch-historische Klasse), Klementis Werk über die »Bildung altassyrischer Eigennamen« ist von ihr subventioniert. Nur erwähnt, kein Schauplatz.",
    "quote": "Mit seinem grundlegenden, von der Akademie der Wissenschaften subventionierten Werke über die »Bildung altassyrischer Eigennamen« hat er sich in der Gelehrtenwelt eine angesehene Stellung gesichert …",
    "srcText": "von der Akademie der Wissenschaften subventionierten Werke"
   },
   "geometry": {
    "type": "Point",
    "coordinates": [
     16.377081,
     48.208903
    ]
   }
  },
  {
   "type": "Feature",
   "properties": {
    "group": 4,
    "story": "Chapter 4",
    "name": "Bureau der Firma Klebinder",
    "kind": "place",
    "character": "Demba, Sonja Hartmann, Klara Postelberg, Etelka Springer, Mister Brown, Neuhäusl",
    "time": "gegen 10 bis halb 11",
    "gloss": "Das Büro der Firma Oskar Klebinder, Modewestenstoffe en gros, am Franz-Josefs-Kai — Sonja Hartmanns Arbeitsplatz und der Motor der Handlung: Demba stellt sein Ultimatum, bis zum Abend 600 Kronen zu beschaffen, sonst fährt Sonja morgen früh mit Georg Weiner nach Venedig. Beim Faustschlag auf den Tisch »klirrt« es wieder; Sonja hält das verborgene Eisen für einen Browning. Demba stürmt davon — ohne seinen Hut, der am Kleiderhaken zurückbleibt. Hausnummer unbekannt, Lage auf dem Kai ungefähr.",
    "quote": "»Claire« und »Ethel« sind für Angestellte einer Manufakturfirma am Franz-Josefs-Kai nicht gerade alltägliche Namen.",
    "srcText": "einer Manufakturfirma am Franz-Josefs-Kai"
   },
   "geometry": {
    "type": "Point",
    "coordinates": [
     16.370745,
     48.217734
    ]
   }
  },
  {
   "type": "Feature",
   "properties": {
    "group": 4,
    "story": "Chapter 4",
    "name": "Südbahnhof",
    "kind": "place",
    "gloss": "Von hier soll der Zug Sonja Hartmann morgen früh um neun »in märchenhafte Fernen entführen« — Wien–Triest–Venedig, mit Georg Weiner. Der historische Südbahnhof am Wiedner Gürtel (1874; 2010 abgetragen, heute Areal des Hauptbahnhofs). Nur erwähnt, kein Schauplatz.",
    "quote": "In kaum vierundzwanzig Stunden ging der Zug ab, der Sonja Hartmann aus dem Südbahnperron in märchenhafte Fernen entführen sollte.",
    "srcText": "aus dem Südbahnperron in märchenhafte Fernen"
   },
   "geometry": {
    "type": "Point",
    "coordinates": [
     16.37721,
     48.18616
    ]
   }
  },
  {
   "type": "Feature",
   "properties": {
    "group": 4,
    "story": "Chapter 4",
    "name": "Rohrerhütte",
    "kind": "place",
    "gloss": "Hier, beim Gasthaus im Wienerwald, schwor Sonja »vorigen Herbst« nach dem Nachtmahl im Park, niemals einen andern als Demba zu lieben — »damals war ich ein halbes Kind«. Das beliebte Ausflugsgasthaus (um 1840 vom Forstaufseher J. Rohrer begründet) lag westlich des Schwarzenbergparks an der Straße nach Tulln, am Fuß des Exelbergs; 2000 abgerissen, heute Wohnbau. Lage ungefähr.",
    "quote": "»Vorigen Herbst. In der Rohrerhütte. Wir gingen nach dem Nachtmahl in den Park und da –«",
    "srcText": "Vorigen Herbst. In der Rohrerhütte"
   },
   "geometry": {
    "type": "Point",
    "coordinates": [
     16.2565,
     48.2447
    ]
   }
  },
  {
   "type": "Feature",
   "properties": {
    "group": 4,
    "story": "Chapter 4",
    "name": "Kottingbrunn",
    "kind": "place",
    "gloss": "Chef Klebinder ist mit dem Zehnuhrzug zum Nachmittagsrennen auf der Rennbahn Kottingbrunn gefahren — weshalb im Büro am Franz-Josefs-Kai gemütliche Stunden herrschen. Nur erwähnt, kein Schauplatz.",
    "quote": "Man wußte, daß er mit dem Zehnuhrzug nach Kottingbrunn fahren wollte, wo nachmittag das Rennen stattfand.",
    "srcText": "mit dem Zehnuhrzug nach Kottingbrunn"
   },
   "geometry": {
    "type": "Point",
    "coordinates": [
     16.228519,
     47.951359
    ]
   }
  },
  {
   "type": "Feature",
   "properties": {
    "group": 4,
    "story": "Chapter 4",
    "name": "Mödling",
    "kind": "place",
    "gloss": "Georg Weiner telefoniert Sonja, dass er zu seinen Eltern nach Mödling fährt — er kommt erst am Abend nach Wien zurück. Nur erwähnt, kein Schauplatz.",
    "quote": "»Er kommt erst am Abend nach Wien. Er hat mir eben telephoniert, daß er zu seinen Eltern nach Mödling fährt.«",
    "srcText": "zu seinen Eltern nach Mödling"
   },
   "geometry": {
    "type": "Point",
    "coordinates": [
     16.283353,
     48.085592
    ]
   }
  },
  {
   "type": "Feature",
   "properties": {
    "group": 7,
    "story": "Chapter 7",
    "name": "Café Hibernia (Café Schottenring)",
    "kind": "place",
    "character": "Demba, Kellner Franz",
    "time": "halb 12 bis 12",
    "gloss": "Das stille Börsencafé zur Mittagsstunde: Demba lässt sich Lehmanns Wohnungsanzeiger, den kompletten kleinen Brockhaus, Armeeschematismus, Gotha, Hof- und Staatshandbuch und das Fremdwörterlexikon bringen — angeblich für seine »Dissertation über den Stand des menschlichen Wissens« — und isst hinter der Bücher-Bastei endlich ungesehen mit beiden Händen. Der Kellner Franz hält ihn für einen Herrn von der Zeitung. Laut Alexander Peer (Wiener Zeitung, 2022) ist das »Hibernia« das ehemalige Café Schottenring, vis-à-vis der Alten Börse.",
    "quote": "Zwischen halb zwölf und zwölf Uhr mittags, wenn die Essensstunde heranrückte, war es meist sehr still im Café Hibernia gegenüber der Börse.",
    "srcText": "im Café Hibernia gegenüber der Börse",
    "essay": "https://www.wienerzeitung.at/h/ein-literarischer-spiegel-wiens"
   },
   "geometry": {
    "type": "Point",
    "coordinates": [
     16.367374,
     48.215803
    ]
   }
  },
  {
   "type": "Feature",
   "properties": {
    "group": 8,
    "story": "Chapter 8",
    "name": "Haus des Trödlers (»Klettengasse 6«)",
    "kind": "place",
    "character": "Demba, der Trödler, zwei Polizisten",
    "time": "9 Uhr morgens",
    "gloss": "Hier beginnt Dembas Tag — und der Roman trägt die Stunde im Titel: Im wunderkammerartigen Arbeitszimmer des alten Trödlers (halb Sammler, halb Händler) will Demba den dritten gestohlenen Druck aus der Universitätsbibliothek verkaufen; der Alte erkennt Stempelspuren, holt zwei Polizisten — »Im Namen des Gesetzes«, Handschellen. Flucht über die dunkle Stiege in die Dachkammer und Sprung aus dem Fenster durch den Nußbaum in den Garten, während ein Grammophon den Prinz-Eugen-Marsch spielt und die Kirchturmglocke neun schlägt. Die »Klettengasse« ist fiktiv; Verortung hier in Nußdorf zwischen Brauerei (der Malzgeruch, der »die ganze Gasse erfüllt«!) und Pfarrkirche St. Thomas (die Neun-Uhr-Glocke). Alternative Lesart: »dritte Haltestelle« der Heiligenstädter Straße spräche für das untere Heiligenstadt um den Pfarrplatz. Lage hypothetisch.",
    "quote": "Ich gab mir einen Ruck, verlor den Halt, ich hörte noch, wie die Glocke vom Kirchturm her neun Uhr zu schlagen begann, und dann –",
    "srcText": "wie die Glocke vom Kirchturm her neun Uhr zu schlagen begann"
   },
   "geometry": {
    "type": "Point",
    "coordinates": [
     16.364134,
     48.258858
    ]
   }
  },
  {
   "type": "Feature",
   "properties": {
    "group": 8,
    "story": "Chapter 8",
    "name": "Universitätsbibliothek",
    "kind": "place",
    "gloss": "Ursprung des Unglückstags: Hier »entlieh« sich Demba vor über einem Jahr drei wertvolle alte Drucke für seine Calpurnius-Siculus-Studie — der Kustos wollte sie nicht nach Hause geben, also trug er sie einfach unter dem Mantel fort. Die Universitätsbibliothek war 1918 im Hauptgebäude der Universität am Ring untergebracht. Nur erzählt, kein Schauplatz des Tages.",
    "quote": "Ich habe drei Bücher aus der Universitätsbibliothek einem Antiquitätenhändler verkauft. Das heißt, verkauft hab' ich nur zwei. Das dritte hab' ich heute morgen umsonst hergegeben.",
    "srcText": "drei Bücher aus der Universitätsbibliothek"
   },
   "geometry": {
    "type": "Point",
    "coordinates": [
     16.360685,
     48.213128
    ]
   }
  },
  {
   "type": "Feature",
   "properties": {
    "group": 8,
    "story": "Chapter 8",
    "name": "Antiquariat in der Johannesgasse",
    "kind": "place",
    "gloss": "Erste Station der Bücher-Odyssee (vor einem halben Jahr): Die Antiquitätenläden der Innenstadt wollten für die alten Drucke nichts geben — »einer von ihnen wollte sie nach dem Gewicht kaufen«. Genaues Geschäft unbekannt, Lage auf der Gasse ungefähr. Nur erzählt, kein Schauplatz des Tages.",
    "quote": "Ich trug sie in die Antiquitätenläden in der Johannesgasse und in der Weihburggasse. Aber dort wollte man mir nichts dafür geben.",
    "srcText": "in die Antiquitätenläden in der Johannesgasse"
   },
   "geometry": {
    "type": "Point",
    "coordinates": [
     16.37594,
     48.20361
    ]
   }
  },
  {
   "type": "Feature",
   "properties": {
    "group": 8,
    "story": "Chapter 8",
    "name": "Antiquariat in der Weihburggasse",
    "kind": "place",
    "gloss": "Zweite Station der Bücher-Odyssee (vor einem halben Jahr) — auch hier kein Verständnis für alte Drucke. Erst der Trödler in Nußdorf/Heiligenstadt »verstand wirklich etwas von Büchern«. Genaues Geschäft unbekannt, Lage auf der Gasse ungefähr. Nur erzählt, kein Schauplatz des Tages.",
    "quote": "Ich trug sie in die Antiquitätenläden in der Johannesgasse und in der Weihburggasse. Aber dort wollte man mir nichts dafür geben.",
    "srcText": "in der Johannesgasse und in der Weihburggasse"
   },
   "geometry": {
    "type": "Point",
    "coordinates": [
     16.372588,
     48.20701
    ]
   }
  },
  {
   "type": "Feature",
   "properties": {
    "group": 16,
    "story": "Chapter 16",
    "name": "Weiners Wohnung (Liechtensteinstraße)",
    "kind": "place",
    "character": "Demba, Georg Weiner",
    "time": "gegen halb 8",
    "gloss": "Georg Weiners »Absteigquartier« — zweiter Stock, Fenster neben dem Balkon, »Morgensonne, Ausblick auf den Liechtensteinpark« (daher am parknahen Abschnitt der Straße verortet, Hausnummer unbekannt). Schon mittags zielt Dembas spitze Frage im Büro hierher; nachts hätte er hier auf Sonja warten müssen. Gegen halb acht steht er nun selbst davor: Das erleuchtete Fenster erlischt — Eifersuchtsqual —, doch Weiner tritt allein aus dem Tor, ruft einen Wagen und nennt dem vermeintlichen »Kollegen« arglos sein Ziel: den Residenzkeller. Pikant: dieselbe Straße, an deren Nordende das Arbeitsministerium residiert.",
    "quote": "Daß dieser Herr Weiner gerade in der Liechtensteinstraße wohnte, das konnte kein Grund sein, um einen Umweg zu machen.",
    "srcText": "gerade in der Liechtensteinstraße wohnte"
   },
   "geometry": {
    "type": "Point",
    "coordinates": [
     16.3605,
     48.2222
    ]
   }
  },
  {
   "type": "Feature",
   "properties": {
    "group": 4,
    "story": "Chapter 4",
    "name": "Venedig",
    "kind": "place",
    "gloss": "Das Sehnsuchtsziel, auf das der ganze Tag zuläuft: Rundreisebillett zweiter Klasse Wien–Triest–Venedig–Wien, mit Sonnwendstein-Besteigung am Semmering, Laibach, Adelsberger Grotte, Ausflügen nach Pirano, Capo d'Istria und Grado, einem Abstecher nach Padua (»wer in Padua war, kennt auch das Innere« Italiens) und zum Abschluss einer Fußwanderung durchs Ennstal. Ob Sonja morgen früh mit Weiner oder mit Demba fährt, entscheidet sich bis zum Abend. Nur erwähnt, kein Schauplatz.",
    "quote": "»Werdet ihr mir alle nach Venedig schreiben?« fragte sie und ließ eine Rauchwolke zur Decke schweben. »Venetia, posta grande.«",
    "srcText": "Werdet ihr mir alle nach Venedig schreiben"
   },
   "geometry": {
    "type": "Point",
    "coordinates": [
     12.3326,
     45.4371
    ]
   }
  },
  {
   "type": "Feature",
   "properties": {
    "group": 11,
    "story": "Chapter 11",
    "name": "Wohnung und Kanzlei Dr. Hirsch",
    "kind": "place",
    "character": "Demba, Frau Dr. Hirsch, Dr. Hirsch",
    "time": "kurz nach 2",
    "gloss": "Geldjagd, nächster Fehlschlag: Bei der Familie des Hof- und Gerichtsadvokaten Dr. Hirsch, wo Demba die Söhne Georg und Erich unterrichtet, erbittet er den Monatsgehalt (80 Kronen) im Voraus — doch die versteckte Zigarre brennt ein Loch in die Pelerine, das Bücken »hat der Arzt verboten«, und das Geld auf dem Tisch kann er nicht nehmen. Sein Trick, per »verwickeltem Rechtsfall« allein mit den Scheinen im Salon zu bleiben, scheitert: Frau Hirsch steckt sie wieder ein. Zum Abschied zerschmettert Demba die Nippesfigur eines Briefträgers, die höhnisch einen Porzellan-Geldbrief hinhält — Echo des Geldbriefträger-Debakels vom Vormittag. Die Eßlinggasse nennt der Text; Hausnummer unbekannt (vgl. auch Alexander Peer, Wiener Zeitung 2022).",
    "quote": "Frau Dr. Hirsch, die Gattin des Hof- und Gerichtsadvokaten in der Eßlinggasse, kam ein wenig außer Atem in das Privatkontor ihres Mannes.",
    "srcText": "des Hof- und Gerichtsadvokaten in der Eßlinggasse",
    "essay": "https://www.wienerzeitung.at/h/ein-literarischer-spiegel-wiens"
   },
   "geometry": {
    "type": "Point",
    "coordinates": [
     16.369653,
     48.215617
    ]
   }
  },
  {
   "type": "Feature",
   "properties": {
    "group": 12,
    "story": "Chapter 12",
    "name": "Pazmanitenstraße 11 (»Egon Müller«)",
    "kind": "place",
    "gloss": "Die Adresse des »gewissen Egon Müller«, dessen Heft-Exemplar Gegenbauer angeblich für 70 Kronen abkaufen müsste — der Hebel von Dembas elegantestem Trick des Tages. Ob Müller existiert oder Dembas Erfindung ist, lässt der Text offen; auffällig ist die präzise Hausnummer. Real heißt die Gasse in der Leopoldstadt Pazmanitengasse — Perutz schreibt »Pazmanitenstraße«. Nur erwähnt, kein Schauplatz.",
    "quote": "»Bitte, reden Sie selbst mit dem Müller und geben Sie mir dann die Hefte. Er wohnt Pazmanitenstraße, elf.«",
    "srcText": "Er wohnt Pazmanitenstraße, elf"
   },
   "geometry": {
    "type": "Point",
    "coordinates": [
     16.384719,
     48.221441
    ]
   }
  },
  {
   "type": "Feature",
   "properties": {
    "group": 13,
    "story": "Chapter 13",
    "name": "Krawattengeschäft am Graben",
    "kind": "place",
    "character": "Demba, Kallisthenes Skuludis",
    "time": "gegen 4",
    "gloss": "Hier beginnt die Verfolgung: Der elegante Herr Kallisthenes Skuludis — Hochstapler und Taschendieb von internationalem Format, Besitzer von fast sechshundert Krawatten — kauft eine orangefarbene Seidenkrawatte, während Demba ihn vom Trottoir aus anstarrt: Es ist der Fremde, der am Mittag seine 70 Kronen vom Wachmann entgegennahm. Demba heftet sich an seine Fersen — über Blumengeschäft, Delikatessenladen und Friseursalon den Graben entlang. Genaues Geschäft unbekannt, Lage am Graben ungefähr.",
    "quote": "Herr Kallisthenes Skuludis trat in das große Herrenmodewarengeschäft auf dem Graben ein und ließ sich von der Verkäuferin Krawatten zeigen.",
    "srcText": "Herrenmodewarengeschäft auf dem Graben"
   },
   "geometry": {
    "type": "Point",
    "coordinates": [
     16.368995,
     48.209432
    ]
   }
  },
  {
   "type": "Feature",
   "properties": {
    "group": 13,
    "story": "Chapter 13",
    "name": "Kaffeehaus-Vorgarten nahe der Oper",
    "kind": "place",
    "character": "Demba, Kallisthenes Skuludis",
    "time": "gegen 4",
    "gloss": "Im Vorgarten eines (ungenannten) Kaffeehauses in Sichtweite der Oper kommt es zum Duell der Diskretionen: Demba fordert seine 70 Kronen zurück, Skuludis hält ihn erst für den Boten eines Hehlers, dann für einen Detektiv — und zahlt die Zeche boshaft mit einer von Dembas Banknoten. Auf der anschließenden Tramflucht verfängt sich Dembas Pelerine an der Griffstange: Skuludis sieht die Handschellen — als Einziger. Rollentausch: Demba flieht auf einen Autoomnibus, und der Berufsgauner sieht ihm mit kollegialer Sympathie nach. Lage ungefähr (»Gegenüber der Oper stand ein Polizist«).",
    "quote": "Gegenüber der Oper stand ein Polizist. Aber beide Herren schlugen ganz von selbst eine Richtung ein, in der auf tausend Schritte Entfernung weit und breit kein Wachmann zu sehen war.",
    "srcText": "Gegenüber der Oper stand ein Polizist"
   },
   "geometry": {
    "type": "Point",
    "coordinates": [
     16.3697,
     48.2046
    ]
   }
  },
  {
   "type": "Feature",
   "properties": {
    "group": 13,
    "story": "Chapter 13",
    "name": "Praterstraße (Juwelenhändler)",
    "kind": "place",
    "gloss": "Eine Stunde vor der Kaffeehaus-Szene verhandelte Skuludis hier mit einem »befreundeten« Juwelenhändler über Schmuckstücke, »die man nur ungern dem grellen Licht des Tages aussetzt« — vergeblich. Deshalb hält er Demba zunächst für den nachgeschickten Boten des Hehlers. Genaues Geschäft unbekannt, Lage auf der Straße ungefähr. Nur erwähnt, kein Schauplatz.",
    "quote": "Vor einer Stunde hatte er in der Praterstraße eine Unterredung sehr delikater Natur mit einem befreundeten Juwelenhändler gehabt, dem er Schmuckstücke jener Art, die man nur ungern dem grellen Licht des Tages aussetzt, zum Kaufe angeboten hatte.",
    "srcText": "in der Praterstraße eine Unterredung sehr delikater Natur"
   },
   "geometry": {
    "type": "Point",
    "coordinates": [
     16.38278,
     48.213647
    ]
   }
  },
  {
   "type": "Feature",
   "properties": {
    "group": 14,
    "story": "Chapter 14",
    "name": "Mariahilferstraße",
    "kind": "place",
    "character": "Demba",
    "time": "nach 4",
    "gloss": "Endpunkt der Flucht vor Skuludis: Hier verlässt Demba den Autoomnibus und geht grübelnd die Straße hinunter — wer streckt noch vor? Die kleinlichen Steinbüchlers (Prokurist einer Regenschirmfabrik, Kleidersalon) scheiden aus; es bleibt Dr. Becker am Kohlmarkt. Zur Topografie der Verfolgungsjagd vgl. Alexander Peer (Wiener Zeitung, 2022). Lage auf der Straße ungefähr.",
    "quote": "Stanislaus Demba verließ den Omnibus und ging langsam die Mariahilferstraße hinunter.",
    "srcText": "ging langsam die Mariahilferstraße hinunter",
    "essay": "https://www.wienerzeitung.at/h/ein-literarischer-spiegel-wiens"
   },
   "geometry": {
    "type": "Point",
    "coordinates": [
     16.353953,
     48.200126
    ]
   }
  },
  {
   "type": "Feature",
   "properties": {
    "group": 14,
    "story": "Chapter 14",
    "name": "Wohnung Dr. Becker (Kohlmarkt)",
    "kind": "place",
    "character": "Demba, Elly Becker, Viky, Anny, Frau Dr. Becker",
    "time": "gegen 5",
    "gloss": "Vierter Stock eines neuen Hauses am Kohlmarkt, »Dozent Dr. R. Becker, ordiniert von zwei bis fünf«. Dembas Kompressen-Trick (das Taschentuch als Brandwunden-Verband) glückt zunächst herrlich: Elly füttert ihn mit Sandwiches und steckt ihm die Zigarette in den Mund, die Freundinnen tippen auf ein Duell (»Prim oder Terz?« — »Eine Sext«). Doch Frau Dr. Becker schickt ihn zum Verbandwechsel ausgerechnet zu ihrem Mann — und lässt die erbetenen 80 Kronen vom Doktor aushändigen. Geschlagen auf der ganzen Linie flieht Demba die Treppe hinunter. Hausnummer unbekannt, Lage am Kohlmarkt ungefähr.",
    "quote": "Dr. Becker wohnte am Kohlmarkt im vierten Stock eines neuen Hauses.",
    "srcText": "Dr. Becker wohnte am Kohlmarkt"
   },
   "geometry": {
    "type": "Point",
    "coordinates": [
     16.367924,
     48.208882
    ]
   }
  },
  {
   "type": "Feature",
   "properties": {
    "group": 15,
    "story": "Chapter 15",
    "name": "Café Turf",
    "kind": "place",
    "character": "Demba, Hübel, Dr. Rübsam, Frau Suschitzky",
    "time": "gegen 7",
    "gloss": "Das verhängte Hinterzimmer der Bukidomino-Runde — Dembas Dachkammer-Wunsch vom Morgen (»den Bauernfängern beim Bukispielen zusehen«) wird bittere Wirklichkeit: Aus Hübels 10 Schulden-Kronen werden »ohne einen Finger zu rühren« 30, 90, 270 Kronen — das Ziel zum Greifen nah. Dann verschwindet Dr. Rübsams goldene Uhr, alle lassen sich durchsuchen, nur Demba kann den Mantel nicht ablegen — und der abgebrannte Ex-Advokat kassiert Dembas Gewinn: »Not bricht Eisen.« Das Eisen hielt. Café-Name wohl fiktiv; Lage hypothetisch im Milieu der Runde zwischen Augartenbrücke und Praterstern (Leopoldstadt).",
    "quote": "In dem kleinen reservierten Zimmer des Café Turf, in das man durch eine sorgfältig verhängte und von einem Pikkolo bewachte Tür eintrat, saßen heute elf Personen.",
    "srcText": "Zimmer des Café Turf"
   },
   "geometry": {
    "type": "Point",
    "coordinates": [
     16.381,
     48.2184
    ]
   }
  }
 ]
}