<?xml version="1.0" encoding="UTF-8"?>
<gpx version="1.1" creator="mappingPerutz" xmlns="http://www.topografix.com/GPX/1/1">
  <rte>
    <name>Weg: Kapitel 14 — Omnibus &amp; Innere Stadt [Omnibus, dann zu Fuß]</name>
    <rtept lat="48.204600" lon="16.369700"><name>Kaffeehaus-Vorgarten nahe der Oper</name></rtept>
    <rtept lat="48.200126" lon="16.353953"><name>Mariahilferstraße</name></rtept>
    <rtept lat="48.208882" lon="16.367924"><name>Wohnung Dr. Becker (Kohlmarkt)</name></rtept>
  </rte>
</gpx>
