{
 "type": "FeatureCollection",
 "_umap_options": {
  "name": "Mapping Perutz — Zwischen neun und neun"
 },
 "features": [
  {
   "type": "Feature",
   "id": "chapter-2/akademie-der-wissenschaften",
   "geometry": {
    "type": "Point",
    "coordinates": [
     16.377081,
     48.208903
    ]
   },
   "properties": {
    "id": "chapter-2/akademie-der-wissenschaften",
    "name": "Akademie der Wissenschaften",
    "description": "**Kapitel 2 · gesichert**\n\nTruxa ist wirkliches Mitglied (philosophisch-historische Klasse), Klementis Werk über die »Bildung altassyrischer Eigennamen« ist von ihr subventioniert. Nur erwähnt, kein Schauplatz.\n\n> Mit seinem grundlegenden, von der Akademie der Wissenschaften subventionierten Werke über die »Bildung altassyrischer Eigennamen« hat er sich in der Gelehrtenwelt eine angesehene Stellung gesichert …",
    "kapitel": "Kapitel 2",
    "confidence": "high",
    "_umap_options": {
     "color": "#1f6f6f",
     "weight": 1
    }
   }
  },
  {
   "type": "Feature",
   "id": "chapter-8/antiquariat-in-der-johannesgasse",
   "geometry": {
    "type": "Point",
    "coordinates": [
     16.37594,
     48.20361
    ]
   },
   "properties": {
    "id": "chapter-8/antiquariat-in-der-johannesgasse",
    "name": "Antiquariat in der Johannesgasse",
    "description": "**Kapitel 8 · straßengenau**\n\nErste Station der Bücher-Odyssee (vor einem halben Jahr): Die Antiquitätenläden der Innenstadt wollten für die alten Drucke nichts geben — »einer von ihnen wollte sie nach dem Gewicht kaufen«. Genaues Geschäft unbekannt, Lage auf der Gasse ungefähr. Nur erzählt, kein Schauplatz des Tages.\n\n> Ich trug sie in die Antiquitätenläden in der Johannesgasse und in der Weihburggasse. Aber dort wollte man mir nichts dafür geben.",
    "kapitel": "Kapitel 8",
    "confidence": "medium",
    "_umap_options": {
     "color": "#2980b9",
     "weight": 1
    }
   }
  },
  {
   "type": "Feature",
   "id": "chapter-8/antiquariat-in-der-weihburggasse",
   "geometry": {
    "type": "Point",
    "coordinates": [
     16.372588,
     48.20701
    ]
   },
   "properties": {
    "id": "chapter-8/antiquariat-in-der-weihburggasse",
    "name": "Antiquariat in der Weihburggasse",
    "description": "**Kapitel 8 · straßengenau**\n\nZweite Station der Bücher-Odyssee (vor einem halben Jahr) — auch hier kein Verständnis für alte Drucke. Erst der Trödler in Nußdorf/Heiligenstadt »verstand wirklich etwas von Büchern«. Genaues Geschäft unbekannt, Lage auf der Gasse ungefähr. Nur erzählt, kein Schauplatz des Tages.\n\n> Ich trug sie in die Antiquitätenläden in der Johannesgasse und in der Weihburggasse. Aber dort wollte man mir nichts dafür geben.",
    "kapitel": "Kapitel 8",
    "confidence": "medium",
    "_umap_options": {
     "color": "#2980b9",
     "weight": 1
    }
   }
  },
  {
   "type": "Feature",
   "id": "chapter-1/arbeitsministerium",
   "geometry": {
    "type": "Point",
    "coordinates": [
     16.360108,
     48.22128
    ]
   },
   "properties": {
    "id": "chapter-1/arbeitsministerium",
    "name": "Arbeitsministerium",
    "description": "**Kapitel 1 · gesichert**\n\nDas k.k. Ministerium für öffentliche Arbeiten residierte im »Fürstenhof«, Liechtensteinstraße 46–46a / Porzellangasse 33a (vgl. Wien Geschichte Wiki) — ums Eck von der Wiesengasse.\n\n> … und der Herr aus dem Arbeitsministerium, der seit Jahren täglich einen »feinen Aufschnitt« für sein zweites Frühstück im Geschäfte der Frau Püchl erstand.",
    "kapitel": "Kapitel 1",
    "confidence": "high",
    "_umap_options": {
     "color": "#b5651d",
     "weight": 1
    }
   }
  },
  {
   "type": "Feature",
   "id": "chapter-2/bank-im-liechtensteinpark",
   "geometry": {
    "type": "Point",
    "coordinates": [
     16.359894,
     48.224042
    ]
   },
   "properties": {
    "id": "chapter-2/bank-im-liechtensteinpark",
    "name": "Bank im Liechtensteinpark",
    "description": "**Kapitel 2 · gegen halb 10 · straßengenau**\n🚶 Demba, Hofrat Klementi, Professor Truxa, Cyrus\n\nDas Lieblingsplätzchen der beiden Gelehrten im oberen, abgelegenen Teil des Liechtensteinparks — hinter einer Sandsteingruppe verborgen, von zwei Akazien beschattet. Hier frühstückt Demba das Butterbrot aus der Wiesengasse, der Hund Cyrus frisst ihm die Extrawurst weg, und der Fußtritt für Cyrus trägt Demba die Diagnose »Haschisch!« ein. Lage der Bank hypothetisch; zur Topografie des Parks vgl. Alexander Peer (Wiener Zeitung, 2022).\n\n> Auf der Bank saß Stanislaus Demba. Er war beim Frühstück.\n\n[📖 Alexander Peer](https://www.wienerzeitung.at/h/ein-literarischer-spiegel-wiens)",
    "kapitel": "Kapitel 2",
    "confidence": "medium",
    "_umap_options": {
     "color": "#1f6f6f",
     "weight": 1
    }
   }
  },
  {
   "type": "Feature",
   "id": "chapter-4/bureau-der-firma-klebinder",
   "geometry": {
    "type": "Point",
    "coordinates": [
     16.370745,
     48.217734
    ]
   },
   "properties": {
    "id": "chapter-4/bureau-der-firma-klebinder",
    "name": "Bureau der Firma Klebinder",
    "description": "**Kapitel 4 · gegen 10 bis halb 11 · straßengenau**\n🚶 Demba, Sonja Hartmann, Klara Postelberg, Etelka Springer, Mister Brown, Neuhäusl\n\nDas Büro der Firma Oskar Klebinder, Modewestenstoffe en gros, am Franz-Josefs-Kai — Sonja Hartmanns Arbeitsplatz. Nach dem Treffen stürmt Demba davon — ohne seinen Hut, der am Kleiderhaken zurückbleibt. Hausnummer unbekannt, Lage auf dem Kai ungefähr.\n\n> »Claire« und »Ethel« sind für Angestellte einer Manufakturfirma am Franz-Josefs-Kai nicht gerade alltägliche Namen.",
    "kapitel": "Kapitel 4",
    "confidence": "medium",
    "_umap_options": {
     "color": "#2c7a3f",
     "weight": 1
    }
   }
  },
  {
   "type": "Feature",
   "id": "chapter-7/caf-hibernia-caf-schottenring",
   "geometry": {
    "type": "Point",
    "coordinates": [
     16.367374,
     48.215803
    ]
   },
   "properties": {
    "id": "chapter-7/caf-hibernia-caf-schottenring",
    "name": "Café Hibernia (Café Schottenring)",
    "description": "**Kapitel 7 · halb 12 bis 12 · gesichert**\n🚶 Demba, Kellner Franz\n\nDas stille Börsencafé zur Mittagsstunde: Demba lässt sich Lehmanns Wohnungsanzeiger, den kompletten kleinen Brockhaus, Armeeschematismus, Gotha, Hof- und Staatshandbuch und das Fremdwörterlexikon bringen — angeblich für seine »Dissertation über den Stand des menschlichen Wissens« — und isst hinter der Bücher-Bastei. Der Kellner Franz hält ihn für einen Herrn von der Zeitung. Laut Alexander Peer (Wiener Zeitung, 2022) ist das »Hibernia« das ehemalige Café Schottenring, vis-à-vis der Alten Börse.\n\n> Zwischen halb zwölf und zwölf Uhr mittags, wenn die Essensstunde heranrückte, war es meist sehr still im Café Hibernia gegenüber der Börse.\n\n[📖 Alexander Peer](https://www.wienerzeitung.at/h/ein-literarischer-spiegel-wiens)",
    "kapitel": "Kapitel 7",
    "confidence": "high",
    "_umap_options": {
     "color": "#a67c00",
     "weight": 1
    }
   }
  },
  {
   "type": "Feature",
   "id": "chapter-15/caf-turf",
   "geometry": {
    "type": "Point",
    "coordinates": [
     16.380626,
     48.217043
    ]
   },
   "properties": {
    "id": "chapter-15/caf-turf",
    "name": "Café Turf",
    "description": "**Kapitel 15 · gegen 7 · hypothetisch**\n🚶 Demba, Hübel, Dr. Rübsam, Frau Suschitzky\n\nDas verhängte Hinterzimmer der Bukidomino-Runde — Dembas Dachkammer-Wunsch vom Morgen (»den Bauernfängern beim Bukispielen zusehen«) wird bittere Wirklichkeit. Café-Name wohl fiktiv; Lage hypothetisch im Milieu der Runde zwischen Augartenbrücke und Praterstern (Leopoldstadt).\n\n> In dem kleinen reservierten Zimmer des Café Turf, in das man durch eine sorgfältig verhängte und von einem Pikkolo bewachte Tür eintrat, saßen heute elf Personen.",
    "kapitel": "Kapitel 15",
    "confidence": "low",
    "_umap_options": {
     "color": "#34495e",
     "weight": 1
    }
   }
  },
  {
   "type": "Feature",
   "id": "chapter-5/dembas-zimmer-bei-frau-pomeisl",
   "geometry": {
    "type": "Point",
    "coordinates": [
     16.357318,
     48.227823
    ]
   },
   "properties": {
    "id": "chapter-5/dembas-zimmer-bei-frau-pomeisl",
    "name": "Dembas Zimmer (bei Frau Pomeisl)",
    "description": "**Kapitel 5, 20 · gegen 11 Uhr · hypothetisch**\n🚶 Demba, Oskar Miksch, Frau Pomeisl\n\nDembas dürftig möbliertes Untermietzimmer in Lichtental, das er seit einem halben Jahr mit dem Eisenbahner Oskar Miksch teilt (Nachtdienst — sie sehen sich kaum, verständigen sich per Zettel); Wirtin ist die kleinbürgerliche Frau Pomeisl, ihr Sohn Anton eingerückt. Hier kommt Demba mitvormittags heim, um sich — der eigene Mantel zerrissen — die Pelerine des Sohnes zu leihen. Lage nach Indizien (keine Hausnummer im Text): bescheidene Gasse im 9. Bezirk nahe »seinem« Greissler in der Wiesengasse, westlich der Liechtensteinstraße, die Kap. 16 als »kürzester Weg nach Hause« dient — keine Prachtstraße. Auch eines der Finals spielt hier.\n\n> Demba trat vor den Spiegel, der die Tür des Kleiderkastens und das Prunkstück des dürftig möblierten Zimmers bildete.",
    "kapitel": "Kapitel 5, 20",
    "confidence": "low",
    "_umap_options": {
     "color": "#c0392b",
     "weight": 1
    }
   }
  },
  {
   "type": "Feature",
   "id": "chapter-1/ecktrafik-der-frau-schimek",
   "geometry": {
    "type": "Point",
    "coordinates": [
     16.359236,
     48.226439
    ]
   },
   "properties": {
    "id": "chapter-1/ecktrafik-der-frau-schimek",
    "name": "Ecktrafik der Frau Schimek",
    "description": "**Kapitel 1 · kurz nach 9 Uhr · straßengenau**\n🚶 Frau Schimek\n\nDie Ecktrafik der alten Frau Schimek »in der Karl-Denk-Gasse« — der Straßenname ist im Roman umbenannt: gemeint ist wohl die benachbarte Simon-Denk-Gasse (vgl. Alexander Peer, Wiener Zeitung, 2022). Platziert am Nordende der Gasse, der dem Greislerladen nächstgelegenen Ecke; welche Ecke genau, bleibt offen.\n\n> Kurz nach neun Uhr erschien die alte Frau Schimek, der die Ecktrafik in der Karl-Denk-Gasse gehörte, zu einem längeren Plausch.\n\n[📖 Alexander Peer](https://www.wienerzeitung.at/h/ein-literarischer-spiegel-wiens)",
    "kapitel": "Kapitel 1",
    "confidence": "medium",
    "_umap_options": {
     "color": "#b5651d",
     "weight": 1
    }
   }
  },
  {
   "type": "Feature",
   "id": "chapter-1/greislerladen-der-frau-p-chl",
   "geometry": {
    "type": "Point",
    "coordinates": [
     16.358229,
     48.227866
    ]
   },
   "properties": {
    "id": "chapter-1/greislerladen-der-frau-p-chl",
    "name": "Greislerladen der Frau Püchl",
    "description": "**Kapitel 1 · kurz nach 9 Uhr · straßengenau**\n🚶 Demba, Frau Püchl, Frau Schimek\n\nDer Greislerladen der Frau Johanna Püchl in der Wiesengasse (Lichtental, 9. Bezirk) — hier beginnt der Roman: Demba kauft ein Butterbrot, drückt die Klinke mit dem Ellbogen, lässt sich das Brot kleinschneiden und verschwindet schließlich, das Geld abgezählt auf dem Ladentisch. Zur Verortung vgl. Alexander Peers Stadtspaziergang (Wiener Zeitung, 2022).\n\n> Die Greislerin in der Wiesengasse, Frau Johanna Püchl, trat an diesem Morgen gegen halb acht Uhr aus dem Laden auf die Straße.\n\n[📖 Alexander Peer](https://www.wienerzeitung.at/h/ein-literarischer-spiegel-wiens)",
    "kapitel": "Kapitel 1",
    "confidence": "medium",
    "_umap_options": {
     "color": "#b5651d",
     "weight": 1
    }
   }
  },
  {
   "type": "Feature",
   "id": "chapter-8/haus-des-tr-dlers-klettengasse-6",
   "geometry": {
    "type": "Point",
    "coordinates": [
     16.364134,
     48.258858
    ]
   },
   "properties": {
    "id": "chapter-8/haus-des-tr-dlers-klettengasse-6",
    "name": "Haus des Trödlers (»Klettengasse 6«)",
    "description": "**Kapitel 8, 9 · 9 Uhr morgens · hypothetisch**\n🚶 Demba, der Trödler, zwei Polizisten\n\nHier beginnt Dembas Tag — was Leser aber erst im Kapitel 8 erfahren – im wunderkammerartigen Arbeitszimmer des alten Trödlers (halb Sammler, halb Händler). Zwei Polizisten treffen auch ein. Demba gelangt über die dunkle Stiege in die Dachkammer und springt aus dem Fenster durch den Nußbaum in den Garten, während ein Grammophon den Prinz-Eugen-Marsch spielt und die Kirchturmglocke neun schlägt. Eine »Klettengasse« ist für Wien Anfang des 20. Jhdts nicht nachgewiesen und wohl fiktiv; Verortung hier in Nußdorf zwischen Brauerei (der Malzgeruch, der »die ganze Gasse erfüllt«!) und Pfarrkirche St. Thomas (die Neun-Uhr-Glocke). Alternative Lesart: »dritte Haltestelle« der Heiligenstädter Straße spräche für das untere Heiligenstadt um den Pfarrplatz. Lage höchst hypothetisch.\n\n> Ich gab mir einen Ruck, verlor den Halt, ich hörte noch, wie die Glocke vom Kirchturm her neun Uhr zu schlagen begann, und dann –",
    "kapitel": "Kapitel 8, 9",
    "confidence": "low",
    "_umap_options": {
     "color": "#2980b9",
     "weight": 1
    }
   }
  },
  {
   "type": "Feature",
   "id": "chapter-13/kaffeehaus-vorgarten-nahe-der-oper",
   "geometry": {
    "type": "Point",
    "coordinates": [
     16.3697,
     48.2046
    ]
   },
   "properties": {
    "id": "chapter-13/kaffeehaus-vorgarten-nahe-der-oper",
    "name": "Kaffeehaus-Vorgarten nahe der Oper",
    "description": "**Kapitel 13 · gegen 4 · straßengenau**\n🚶 Demba, Kallisthenes Skuludis\n\nIm Vorgarten eines (ungenannten) Kaffeehauses in Sichtweite der Oper kommt es zum Aufeinandertreffen von Demba und Skuludis. Danach flieht Demba auf einen Autoomnibus, und der Berufsgauner sieht ihm mit kollegialer Sympathie nach. Lage ungefähr (»Gegenüber der Oper stand ein Polizist«).\n\n> Gegenüber der Oper stand ein Polizist. Aber beide Herren schlugen ganz von selbst eine Richtung ein, in der auf tausend Schritte Entfernung weit und breit kein Wachmann zu sehen war.",
    "kapitel": "Kapitel 13",
    "confidence": "medium",
    "_umap_options": {
     "color": "#1565a0",
     "weight": 1
    }
   }
  },
  {
   "type": "Feature",
   "id": "chapter-8/kolingasse-steffi-prokop",
   "geometry": {
    "type": "Point",
    "coordinates": [
     16.362354,
     48.215744
    ]
   },
   "properties": {
    "id": "chapter-8/kolingasse-steffi-prokop",
    "name": "Kolingasse (Steffi Prokop)",
    "description": "**Kapitel 8, 9, 10 · 12 bis 2 Uhr · straßengenau**\n🚶 Demba, Steffi Prokop, Stephan Prokop\n\nSteffi Prokops Wohnung in der Kolingasse (Alsergrund, beim Liechtensteinpark), von Alexander Peer identifiziert. Hierher kommt Demba um zwölf Uhr an und bleibt für drei Kapitel hier. Lage straßengenau (keine Hausnummer im Text).\n\n> »Ich gehe jetzt in die Kolingasse,« unterbrach ihn Stanislaus Demba.\n\n[📖 Alexander Peer](https://derive.at/texte/in-ketten-durch-wien/)",
    "kapitel": "Kapitel 8, 9, 10",
    "confidence": "medium",
    "_umap_options": {
     "color": "#2980b9",
     "weight": 1
    }
   }
  },
  {
   "type": "Feature",
   "id": "chapter-2/konsular-akademie",
   "geometry": {
    "type": "Point",
    "coordinates": [
     16.356794,
     48.22292
    ]
   },
   "properties": {
    "id": "chapter-2/konsular-akademie",
    "name": "Konsular-Akademie",
    "description": "**Kapitel 2 · gesichert**\n\nLehrstätte Professor Ritter von Truxas. Die k.u.k. Konsularakademie bezog 1904 ihren Neubau in der Waisenhausgasse (seit 1913 Boltzmanngasse 16) — wenige Gehminuten vom Liechtensteinpark, wo die Gelehrten ihre Morgenrunde drehen. Nur erwähnt, kein Schauplatz.\n\n> Professor Ritter von Truxa, wirkliches Mitglied der Akademie der Wissenschaften (philosophisch-historische Klasse) und Lehrer an der Konsular-Akademie, ist weniger bekannt.",
    "kapitel": "Kapitel 2",
    "confidence": "high",
    "_umap_options": {
     "color": "#1f6f6f",
     "weight": 1
    }
   }
  },
  {
   "type": "Feature",
   "id": "chapter-4/kottingbrunn",
   "geometry": {
    "type": "Point",
    "coordinates": [
     16.228519,
     47.951359
    ]
   },
   "properties": {
    "id": "chapter-4/kottingbrunn",
    "name": "Kottingbrunn",
    "description": "**Kapitel 4 · gesichert**\n\nChef Klebinder ist mit dem Zehnuhrzug zum Nachmittagsrennen auf der Rennbahn Kottingbrunn gefahren — weshalb im Büro am Franz-Josefs-Kai gemütliche Stunden herrschen. Nur erwähnt, kein Schauplatz.\n\n> Man wußte, daß er mit dem Zehnuhrzug nach Kottingbrunn fahren wollte, wo nachmittag das Rennen stattfand.",
    "kapitel": "Kapitel 4",
    "confidence": "high",
    "_umap_options": {
     "color": "#2c7a3f",
     "weight": 1
    }
   }
  },
  {
   "type": "Feature",
   "id": "chapter-13/krawattengesch-ft-am-graben",
   "geometry": {
    "type": "Point",
    "coordinates": [
     16.368995,
     48.209432
    ]
   },
   "properties": {
    "id": "chapter-13/krawattengesch-ft-am-graben",
    "name": "Krawattengeschäft am Graben",
    "description": "**Kapitel 13 · gegen 4 · straßengenau**\n🚶 Demba, Kallisthenes Skuludis\n\nDer elegante Herr Kallisthenes Skuludis — Hochstapler und Taschendieb von internationalem Format, Besitzer von fast sechshundert Krawatten — kauft eine orangefarbene Seidenkrawatte, während Demba sich an seine Fersen heftet — über Blumengeschäft, Delikatessenladen und Friseursalon den Graben entlang. Genaues Geschäft unbekannt, Lage am Graben ungefähr.\n\n> Herr Kallisthenes Skuludis trat in das große Herrenmodewarengeschäft auf dem Graben ein und ließ sich von der Verkäuferin Krawatten zeigen.",
    "kapitel": "Kapitel 13",
    "confidence": "medium",
    "_umap_options": {
     "color": "#1565a0",
     "weight": 1
    }
   }
  },
  {
   "type": "Feature",
   "id": "chapter-2/kunsthistorisches-museum",
   "geometry": {
    "type": "Point",
    "coordinates": [
     16.361782,
     48.203739
    ]
   },
   "properties": {
    "id": "chapter-2/kunsthistorisches-museum",
    "name": "Kunsthistorisches Museum",
    "description": "**Kapitel 2 · gesichert**\n\nArbeitsplatz Hofrat Klementis: Direktor der altorientalischen Spezialsammlung, vorübergehend auch mit der Oberleitung der ethnographisch-anthropologischen Abteilung betraut. Nur erwähnt, kein Schauplatz.\n\n> Hofrat Klementi, der Direktor der altorientalischen Spezialsammlung des kunsthistorischen Museums, derzeit vorübergehend auch mit der Oberleitung der ethnographisch-anthropologischen Abteilung betraut, muß den Lesern wohl nicht erst vorgestellt werden.",
    "kapitel": "Kapitel 2",
    "confidence": "high",
    "_umap_options": {
     "color": "#1f6f6f",
     "weight": 1
    }
   }
  },
  {
   "type": "Feature",
   "id": "meta/leo-perutz-wohnung-porzellangasse-37",
   "geometry": {
    "type": "Point",
    "coordinates": [
     16.361067,
     48.222556
    ]
   },
   "properties": {
    "id": "meta/leo-perutz-wohnung-porzellangasse-37",
    "name": "Leo Perutz' Wohnung (Porzellangasse 37)",
    "description": "**Meta / Kontext · gesichert**\n\nLeo Perutz wohnte mit seiner Familie 17 Jahre lang in der Porzellangasse 37 (9. Bezirk; vgl. Alexander Peer, verlinktes Essay). Kein Schauplatz des Romans, sondern ein biografischer Kontextpunkt — bemerkenswert: Perutz hat die Handlung des Romans in die eigene Nachbarschaft gesetzt.\n\n[📖 Alexander Peer](https://derive.at/texte/in-ketten-durch-wien/)",
    "kapitel": "Meta / Kontext",
    "confidence": "high",
    "_umap_options": {
     "color": "#8a8178",
     "weight": 1
    }
   }
  },
  {
   "type": "Feature",
   "id": "chapter-3/maria-theresien-stra-e-18",
   "geometry": {
    "type": "Point",
    "coordinates": [
     16.365977,
     48.21628
    ]
   },
   "properties": {
    "id": "chapter-3/maria-theresien-stra-e-18",
    "name": "Maria-Theresien-Straße 18",
    "description": "**Kapitel 3 · gesichert**\n\nAlice Leitners Dienstadresse beim kaiserlichen Rat Adalbert Füchsel — die Adresse, die sich Demba partout nicht notieren kann (und deren Grund er nicht preisgeben mag); am Ende weiß er nur noch »Alice und kaiserlicher Rat Füchsel«. Nur im Dialog genannt, kein Schauplatz.\n\n> »Also notieren Sie sich meine Adresse: Alice Leitner, bei Herrn kaiserlichen Rat Adalbert Füchsel, neunter Bezirk, Maria-Theresien Straße 18.«",
    "kapitel": "Kapitel 3",
    "confidence": "high",
    "_umap_options": {
     "color": "#8e44ad",
     "weight": 1
    }
   }
  },
  {
   "type": "Feature",
   "id": "chapter-14/mariahilferstra-e",
   "geometry": {
    "type": "Point",
    "coordinates": [
     16.353953,
     48.200126
    ]
   },
   "properties": {
    "id": "chapter-14/mariahilferstra-e",
    "name": "Mariahilferstraße",
    "description": "**Kapitel 14 · nach 4 · straßengenau**\n🚶 Demba\n\nHier verlässt Demba den Autoomnibus und geht grübelnd die Straße hinunter. Zur Topografie der Verfolgungsjagd vgl. Alexander Peer (Wiener Zeitung, 2022). Lage auf der Straße ungefähr.\n\n> Stanislaus Demba verließ den Omnibus und ging langsam die Mariahilferstraße hinunter.\n\n[📖 Alexander Peer](https://www.wienerzeitung.at/h/ein-literarischer-spiegel-wiens)",
    "kapitel": "Kapitel 14",
    "confidence": "medium",
    "_umap_options": {
     "color": "#7b3f00",
     "weight": 1
    }
   }
  },
  {
   "type": "Feature",
   "id": "chapter-4/m-dling",
   "geometry": {
    "type": "Point",
    "coordinates": [
     16.283353,
     48.085592
    ]
   },
   "properties": {
    "id": "chapter-4/m-dling",
    "name": "Mödling",
    "description": "**Kapitel 4 · gesichert**\n\nGeorg Weiner telefoniert Sonja, dass er zu seinen Eltern nach Mödling fährt — er kommt erst am Abend nach Wien zurück. Nur erwähnt, kein Schauplatz.\n\n> »Er kommt erst am Abend nach Wien. Er hat mir eben telephoniert, daß er zu seinen Eltern nach Mödling fährt.«",
    "kapitel": "Kapitel 4",
    "confidence": "high",
    "_umap_options": {
     "color": "#2c7a3f",
     "weight": 1
    }
   }
  },
  {
   "type": "Feature",
   "id": "chapter-3/parkbank-des-fr-uleins",
   "geometry": {
    "type": "Point",
    "coordinates": [
     16.358371,
     48.223185
    ]
   },
   "properties": {
    "id": "chapter-3/parkbank-des-fr-uleins",
    "name": "Parkbank des Fräuleins",
    "description": "**Kapitel 3 · gegen dreiviertel 10 · straßengenau**\n🚶 Demba, Alice Leitner, Frau Buresch\n\nDie Bank, auf der das Kinderfräulein Alice Leitner liest (»Hedda Gabler«) und Demba sich erschöpft niederlässt. Der Park wird im Text nicht benannt — plausibel der belebte untere Liechtensteinpark, wo Demba kurz zuvor im Kindergewühl (Spielplatz in der südwestlichen Ecke) verschwand; Lage hypothetisch.\n\n> »Weil ich ein Krüppel bin,« sagte er mit tonloser Stimme. »Es muß heraus. Ich habe keine Arme.«",
    "kapitel": "Kapitel 3",
    "confidence": "medium",
    "_umap_options": {
     "color": "#8e44ad",
     "weight": 1
    }
   }
  },
  {
   "type": "Feature",
   "id": "chapter-12/pazmanitenstra-e-11-egon-m-ller",
   "geometry": {
    "type": "Point",
    "coordinates": [
     16.384719,
     48.221441
    ]
   },
   "properties": {
    "id": "chapter-12/pazmanitenstra-e-11-egon-m-ller",
    "name": "Pazmanitenstraße 11 (»Egon Müller«)",
    "description": "**Kapitel 12 · straßengenau**\n\nDie Adresse des »gewissen Egon Müller«, dessen Heft-Exemplar Gegenbauer angeblich für 70 Kronen abkaufen müsste — der Hebel von Dembas elegantestem Trick des Tages. Ob Müller existiert oder Dembas Erfindung ist, lässt der Text offen; auffällig ist die präzise Hausnummer. Real heißt die Gasse in der Leopoldstadt Pazmanitengasse — Perutz schreibt »Pazmanitenstraße«. Nur erwähnt, kein Schauplatz.\n\n> »Bitte, reden Sie selbst mit dem Müller und geben Sie mir dann die Hefte. Er wohnt Pazmanitenstraße, elf.«",
    "kapitel": "Kapitel 12",
    "confidence": "medium",
    "_umap_options": {
     "color": "#33691e",
     "weight": 1
    }
   }
  },
  {
   "type": "Feature",
   "id": "chapter-2/porzellangasse-querung",
   "geometry": {
    "type": "Point",
    "coordinates": [
     16.361725,
     48.224916
    ]
   },
   "properties": {
    "id": "chapter-2/porzellangasse-querung",
    "name": "Porzellangasse (Querung)",
    "description": "**Kapitel 2 · gegen halb 10 · straßengenau**\n🚶 Hofrat Klementi, Professor Truxa, Cyrus\n\nAuf dem morgendlichen Weg in den Park: Professor Truxa hat »seine liebe Not«, den in Gedanken stehenbleibenden Hofrat heil über die Gleise der elektrischen Tramway zu bringen. Genaue Querungsstelle offen.\n\n> Professor Truxa hatte seine liebe Not, den Freund beim Überqueren der Porzellangasse glücklich aus dem Gefahrenbereich der elektrischen Tramway zu bringen.",
    "kapitel": "Kapitel 2",
    "confidence": "medium",
    "_umap_options": {
     "color": "#1f6f6f",
     "weight": 1
    }
   }
  },
  {
   "type": "Feature",
   "id": "chapter-13/praterstra-e-juwelenh-ndler",
   "geometry": {
    "type": "Point",
    "coordinates": [
     16.38278,
     48.213647
    ]
   },
   "properties": {
    "id": "chapter-13/praterstra-e-juwelenh-ndler",
    "name": "Praterstraße (Juwelenhändler)",
    "description": "**Kapitel 13 · straßengenau**\n\nEine Stunde vor der Kaffeehaus-Szene verhandelte Skuludis hier mit einem »befreundeten« Juwelenhändler über Schmuckstücke, »die man nur ungern dem grellen Licht des Tages aussetzt« — vergeblich. Genaues Geschäft unbekannt, Lage auf der Straße ungefähr. Nur erwähnt, kein Schauplatz.\n\n> Vor einer Stunde hatte er in der Praterstraße eine Unterredung sehr delikater Natur mit einem befreundeten Juwelenhändler gehabt, dem er Schmuckstücke jener Art, die man nur ungern dem grellen Licht des Tages aussetzt, zum Kaufe angeboten hatte.",
    "kapitel": "Kapitel 13",
    "confidence": "medium",
    "_umap_options": {
     "color": "#1565a0",
     "weight": 1
    }
   }
  },
  {
   "type": "Feature",
   "id": "chapter-17/residenzkeller",
   "geometry": {
    "type": "Point",
    "coordinates": [
     16.367512,
     48.21015
    ]
   },
   "properties": {
    "id": "chapter-17/residenzkeller",
    "name": "Residenzkeller",
    "description": "**Kapitel 17, 18, 19 · gegen 8 · hypothetisch**\n🚶 Demba, Sonja Hartmann, Georg Weiner, Emil Horvath, Dr. Fuhrmann\n\nSchauplatz gleich dreier Kapitel. Im Extrazimmer, wo Sonjas Freundeskreis sitzt, blamiert sich Demba vor Weiner, dem Disponenten Horvath und dem Bulldoggen-Dr. Fuhrmann. Am Ende flieht er, Sonja verrät seine Wohnung (Kapitel 19). Lage hypothetisch: ein »Residenzkeller« ist für die Fischerstiege bezeugt, ob Perutz diesen meinte, ist unbestätigt.\n\n> »In den Residenzkeller!« sagte Weiner. »In den Residenzkeller? Man ißt gut dort, nicht wahr?«",
    "kapitel": "Kapitel 17, 18, 19",
    "confidence": "low",
    "_umap_options": {
     "color": "#e07b16",
     "weight": 1
    }
   }
  },
  {
   "type": "Feature",
   "id": "chapter-4/rohrerh-tte",
   "geometry": {
    "type": "Point",
    "coordinates": [
     16.2565,
     48.2447
    ]
   },
   "properties": {
    "id": "chapter-4/rohrerh-tte",
    "name": "Rohrerhütte",
    "description": "**Kapitel 4 · hypothetisch**\n\nHier, beim Gasthaus im Wienerwald, schwor Sonja »vorigen Herbst« nach dem Nachtmahl im Park, niemals einen andern als Demba zu lieben — »damals war ich ein halbes Kind«. Das beliebte Ausflugsgasthaus (um 1840 vom Forstaufseher J. Rohrer begründet) lag westlich des Schwarzenbergparks an der Straße nach Tulln, am Fuß des Exelbergs; 2000 abgerissen, heute Wohnbau. Lage ungefähr.\n\n> »Vorigen Herbst. In der Rohrerhütte. Wir gingen nach dem Nachtmahl in den Park und da –«",
    "kapitel": "Kapitel 4",
    "confidence": "low",
    "_umap_options": {
     "color": "#2c7a3f",
     "weight": 1
    }
   }
  },
  {
   "type": "Feature",
   "id": "chapter-4/s-dbahnhof",
   "geometry": {
    "type": "Point",
    "coordinates": [
     16.37721,
     48.18616
    ]
   },
   "properties": {
    "id": "chapter-4/s-dbahnhof",
    "name": "Südbahnhof",
    "description": "**Kapitel 4 · gesichert**\n\nVon hier soll der Zug Sonja Hartmann morgen früh um neun »in märchenhafte Fernen entführen« — Wien–Triest–Venedig, mit Georg Weiner. Der historische Südbahnhof am Wiedner Gürtel (1874; 2010 abgetragen, heute Areal des Hauptbahnhofs). Nur erwähnt, kein Schauplatz.\n\n> In kaum vierundzwanzig Stunden ging der Zug ab, der Sonja Hartmann aus dem Südbahnperron in märchenhafte Fernen entführen sollte.",
    "kapitel": "Kapitel 4",
    "confidence": "high",
    "_umap_options": {
     "color": "#2c7a3f",
     "weight": 1
    }
   }
  },
  {
   "type": "Feature",
   "id": "chapter-6/telephonzelle-in-der-berggasse",
   "geometry": {
    "type": "Point",
    "coordinates": [
     16.362898,
     48.218443
    ]
   },
   "properties": {
    "id": "chapter-6/telephonzelle-in-der-berggasse",
    "name": "Telephonzelle in der Berggasse",
    "description": "**Kapitel 6 · zwischen 11 und 12 · hypothetisch**\n🚶 Demba\n\nVon hier ruft Demba in Kapitel 6 Steffi Prokop an und verabredet sich für zwölf Uhr (»deswegen komme ich ja zu dir«) — draußen wartet schon ungeduldig ein Herr auf die Zelle. Eine Adresse nennt der Roman nicht; hypothetisch an der Berggasse verortet, wo das Telefon-Vermittlungsamt »Centrale II« (1897–99) stand — die einzige im 9. Bezirk dokumentierte frühe Telefoneinrichtung (gemeint ist freilich eine öffentliche Sprechstelle, nicht die Zentrale selbst).\n\n[📖 Wien Museum](https://magazin.wienmuseum.at/die-anfaenge-der-telefonie-in-wien)",
    "kapitel": "Kapitel 6",
    "confidence": "low",
    "_umap_options": {
     "color": "#16735b",
     "weight": 1
    }
   }
  },
  {
   "type": "Feature",
   "id": "meta/tramfahrt-tr-dler-laden-rekonstruiert",
   "geometry": {
    "type": "LineString",
    "coordinates": [
     [
      16.364134,
      48.258858
     ],
     [
      16.358229,
      48.227866
     ]
    ]
   },
   "properties": {
    "id": "meta/tramfahrt-tr-dler-laden-rekonstruiert",
    "name": "Tramfahrt: Trödler → Laden (rekonstruiert)",
    "description": "**Meta / Kontext · hypothetisch**\n\nRekonstruierter Tagesauftakt: Früh am Morgen bringt Demba den dritten Bibliotheksdruck mit der Tram zum Trödler nach Heiligenstadt (»Man fährt durch die Heiligenstädter Straße, steigt bei der dritten Haltestelle aus«), wird gefesselt, flieht und kehrt in die Stadt zurück. Davon erfahren wir erst rückblickend in Kapitel 8 — deshalb steht diese Fahrt nicht im gezeichneten Tagesweg, sondern hier in der Kontext-Ebene. Über das Straßennetz als Schienen-Proxy geroutet.",
    "kapitel": "Meta / Kontext",
    "confidence": "low",
    "_umap_options": {
     "color": "#8a8178",
     "weight": 5
    }
   }
  },
  {
   "type": "Feature",
   "id": "chapter-8/universit-tsbibliothek",
   "geometry": {
    "type": "Point",
    "coordinates": [
     16.360685,
     48.213128
    ]
   },
   "properties": {
    "id": "chapter-8/universit-tsbibliothek",
    "name": "Universitätsbibliothek",
    "description": "**Kapitel 8 · gesichert**\n\nUrsprung des Unglückstags: Hier »entlieh« sich Demba vor über einem Jahr drei wertvolle alte Drucke für seine Calpurnius-Siculus-Studie. Die Universitätsbibliothek war 1918 im Hauptgebäude der Universität am Ring untergebracht. Nur erzählt, kein Schauplatz des Tages.\n\n> Ich habe drei Bücher aus der Universitätsbibliothek einem Antiquitätenhändler verkauft. Das heißt, verkauft hab' ich nur zwei. Das dritte hab' ich heute morgen umsonst hergegeben.",
    "kapitel": "Kapitel 8",
    "confidence": "high",
    "_umap_options": {
     "color": "#2980b9",
     "weight": 1
    }
   }
  },
  {
   "type": "Feature",
   "id": "chapter-2/unterer-liechtensteinpark",
   "geometry": {
    "type": "Point",
    "coordinates": [
     16.359,
     48.2232
    ]
   },
   "properties": {
    "id": "chapter-2/unterer-liechtensteinpark",
    "name": "Unterer Liechtensteinpark",
    "description": "**Kapitel 2 · gegen halb 10 · straßengenau**\n🚶 Demba, Hofrat Klementi, Professor Truxa\n\nDie Gelehrten jagen dem vermeintlichen Haschischraucher nach — und vergessen dabei den an die Bank gebundenen Cyrus. Im unteren, belebten Teil des Parks verliert sich Dembas Spur im Gewühl der spielenden Kinder. Lage ungefähr (südlicher Parkteil).\n\n> Als die beiden Gelehrten atemlos den unteren Teil des Parkes erreichten, war der Haschischtrunkene schon lange im Gewühle der spielenden Kinder verschwunden.",
    "kapitel": "Kapitel 2",
    "confidence": "medium",
    "_umap_options": {
     "color": "#1f6f6f",
     "weight": 1
    }
   }
  },
  {
   "type": "Feature",
   "id": "chapter-4/venedig",
   "geometry": {
    "type": "Point",
    "coordinates": [
     12.3326,
     45.4371
    ]
   },
   "properties": {
    "id": "chapter-4/venedig",
    "name": "Venedig",
    "description": "**Kapitel 4, 5, 8, 18 · gesichert**\n\nDas Sehnsuchtsziel, auf das der ganze Tag zuläuft — von Anfang bis Schluss immer wieder beschworen. Sonjas Rundreisebillett zweiter Klasse Wien–Triest–Venedig–Wien (mit Semmering, Adelsberger Grotte, Pirano, Padua und Ennstal-Wanderung) ist der Einsatz der Geldjagd (Kapitel 4); Demba will an Weiners Stelle mit ihr fahren (Kapitel 5); und am Ende schleudert Sonja eben dieses Rundreiseheft Weiner ins Gesicht (Kapitel 18) — das Objekt, das Demba den ganzen Tag erjagen wollte, liegt da wertlos am Boden. Weit entferntes Motiv, kein Schauplatz.\n\n> »Werdet ihr mir alle nach Venedig schreiben?« fragte sie und ließ eine Rauchwolke zur Decke schweben. »Venetia, posta grande.«",
    "kapitel": "Kapitel 4, 5, 8, 18",
    "confidence": "high",
    "_umap_options": {
     "color": "#2c7a3f",
     "weight": 1
    }
   }
  },
  {
   "type": "Feature",
   "id": "chapter-3/votivpark",
   "geometry": {
    "type": "Point",
    "coordinates": [
     16.358344,
     48.215752
    ]
   },
   "properties": {
    "id": "chapter-3/votivpark",
    "name": "Votivpark",
    "description": "**Kapitel 3 · gesichert**\n\nNur Gesprächsstoff auf der Parkbank: Das Fräulein weiß zu berichten, dass im Votivpark heuer Sessel statt der Bänke aufgestellt werden sollen — vier Heller pro Person. Eine kleine Wiener Parkökonomie am Rande; Schauplatz ist der Votivpark nicht.\n\n> »Im Votivpark sollen dieses Jahr Sessel aufgestellt werden statt der Bänke«, erzählte das Fräulein. »Vier Heller pro Person.«",
    "kapitel": "Kapitel 3",
    "confidence": "high",
    "_umap_options": {
     "color": "#8e44ad",
     "weight": 1
    }
   }
  },
  {
   "type": "Feature",
   "id": "chapter-1/weg-kapitel-1-im-lichtental",
   "geometry": {
    "type": "LineString",
    "coordinates": [
     [
      16.358229,
      48.227866
     ],
     [
      16.359236,
      48.226439
     ]
    ]
   },
   "properties": {
    "id": "chapter-1/weg-kapitel-1-im-lichtental",
    "name": "Weg: Kapitel 1 — im Lichtental",
    "description": "**Kapitel 1**\n🚶 Demba\n\nKapitel 1: Dembas Morgen im Lichtental — vom Greislerladen der Frau Püchl die paar Schritte zur Ecktrafik. Hier beginnt der gezeichnete Tagesweg; die vorausgehende Tramfahrt findet sich in der Meta-Ebene unten.",
    "kapitel": "Kapitel 1",
    "confidence": "",
    "_umap_options": {
     "color": "#b5651d",
     "weight": 5
    }
   }
  },
  {
   "type": "Feature",
   "id": "chapter-11/weg-kapitel-11-zur-e-linggasse",
   "geometry": {
    "type": "LineString",
    "coordinates": [
     [
      16.362354,
      48.215744
     ],
     [
      16.369653,
      48.215617
     ]
    ]
   },
   "properties": {
    "id": "chapter-11/weg-kapitel-11-zur-e-linggasse",
    "name": "Weg: Kapitel 11 — zur Eßlinggasse",
    "description": "**Kapitel 11**\n🚶 Demba\n\nKapitel 11: Von Steffis Wohnung (Kolingasse) zur Wohnung Dr. Hirsch in der Eßlinggasse.",
    "kapitel": "Kapitel 11",
    "confidence": "",
    "_umap_options": {
     "color": "#9b1d4f",
     "weight": 5
    }
   }
  },
  {
   "type": "Feature",
   "id": "chapter-13/weg-kapitel-13-skuludis-verfolgung",
   "geometry": {
    "type": "LineString",
    "coordinates": [
     [
      16.369653,
      48.215617
     ],
     [
      16.368995,
      48.209432
     ],
     [
      16.3697,
      48.2046
     ]
    ]
   },
   "properties": {
    "id": "chapter-13/weg-kapitel-13-skuludis-verfolgung",
    "name": "Weg: Kapitel 13 — Skuludis-Verfolgung",
    "description": "**Kapitel 13**\n🚶 Demba\n\nSkuludis-Verfolgung: vom Krawattengeschäft am Graben zum Kaffeehaus nahe der Oper.",
    "kapitel": "Kapitel 13",
    "confidence": "",
    "_umap_options": {
     "color": "#1565a0",
     "weight": 5
    }
   }
  },
  {
   "type": "Feature",
   "id": "chapter-14/weg-kapitel-14-omnibus-innere-stadt",
   "geometry": {
    "type": "LineString",
    "coordinates": [
     [
      16.3697,
      48.2046
     ],
     [
      16.353953,
      48.200126
     ],
     [
      16.367924,
      48.208882
     ]
    ]
   },
   "properties": {
    "id": "chapter-14/weg-kapitel-14-omnibus-innere-stadt",
    "name": "Weg: Kapitel 14 — Omnibus & Innere Stadt",
    "description": "**Kapitel 14**\n🚶 Demba\n\nOper→Mariahilferstraße als OMNIBUS-Fahrt (über das Straßennetz geroutet), dann zu Fuß zur Wohnung Dr. Becker am Kohlmarkt.",
    "kapitel": "Kapitel 14",
    "confidence": "",
    "_umap_options": {
     "color": "#7b3f00",
     "weight": 5
    }
   }
  },
  {
   "type": "Feature",
   "id": "chapter-15/weg-kapitel-15-ins-caf-turf",
   "geometry": {
    "type": "LineString",
    "coordinates": [
     [
      16.367924,
      48.208882
     ],
     [
      16.380626,
      48.217043
     ]
    ]
   },
   "properties": {
    "id": "chapter-15/weg-kapitel-15-ins-caf-turf",
    "name": "Weg: Kapitel 15 — ins Café Turf",
    "description": "**Kapitel 15**\n🚶 Demba\n\nZum (fiktiven) Café Turf in der Leopoldstadt.",
    "kapitel": "Kapitel 15",
    "confidence": "",
    "_umap_options": {
     "color": "#34495e",
     "weight": 5
    }
   }
  },
  {
   "type": "Feature",
   "id": "chapter-16/weg-kapitel-16-mahnwache",
   "geometry": {
    "type": "LineString",
    "coordinates": [
     [
      16.380626,
      48.217043
     ],
     [
      16.360574,
      48.219717
     ]
    ]
   },
   "properties": {
    "id": "chapter-16/weg-kapitel-16-mahnwache",
    "name": "Weg: Kapitel 16 — Mahnwache",
    "description": "**Kapitel 16**\n🚶 Demba\n\nHeimwärts, Halt zur Mahnwache vor Weiners Wohnung in der Liechtensteinstraße.",
    "kapitel": "Kapitel 16",
    "confidence": "",
    "_umap_options": {
     "color": "#6a5acd",
     "weight": 5
    }
   }
  },
  {
   "type": "Feature",
   "id": "chapter-17/weg-kapitel-17-fiaker-zum-residenzkeller",
   "geometry": {
    "type": "LineString",
    "coordinates": [
     [
      16.360574,
      48.219717
     ],
     [
      16.367512,
      48.21015
     ]
    ]
   },
   "properties": {
    "id": "chapter-17/weg-kapitel-17-fiaker-zum-residenzkeller",
    "name": "Weg: Kapitel 17 — Fiaker zum Residenzkeller",
    "description": "**Kapitel 17**\n🚶 Demba\n\nFIAKER-Fahrt in den Residenzkeller (über das fahrbare Straßennetz, keine engen Fußgängergassen).",
    "kapitel": "Kapitel 17",
    "confidence": "",
    "_umap_options": {
     "color": "#e07b16",
     "weight": 5
    }
   }
  },
  {
   "type": "Feature",
   "id": "chapter-2/weg-kapitel-2-in-den-liechtensteinpark",
   "geometry": {
    "type": "LineString",
    "coordinates": [
     [
      16.359236,
      48.226439
     ],
     [
      16.359894,
      48.224042
     ],
     [
      16.359,
      48.2232
     ]
    ]
   },
   "properties": {
    "id": "chapter-2/weg-kapitel-2-in-den-liechtensteinpark",
    "name": "Weg: Kapitel 2 — in den Liechtensteinpark",
    "description": "**Kapitel 2**\n🚶 Demba\n\nDembas Weg im zweiten Kapitel: Vom Laden-Block hinunter in den Liechtensteinpark, zur Bank und in den unteren Parkteil.",
    "kapitel": "Kapitel 2",
    "confidence": "",
    "_umap_options": {
     "color": "#1f6f6f",
     "weight": 5
    }
   }
  },
  {
   "type": "Feature",
   "id": "chapter-3/weg-kapitel-3-im-park",
   "geometry": {
    "type": "LineString",
    "coordinates": [
     [
      16.359,
      48.2232
     ],
     [
      16.358371,
      48.223185
     ]
    ]
   },
   "properties": {
    "id": "chapter-3/weg-kapitel-3-im-park",
    "name": "Weg: Kapitel 3 — im Park",
    "description": "**Kapitel 3**\n🚶 Demba\n\nKurzer Weg Dembas im Park zur Bank des Fräuleins (Alice Leitner).",
    "kapitel": "Kapitel 3",
    "confidence": "",
    "_umap_options": {
     "color": "#8e44ad",
     "weight": 5
    }
   }
  },
  {
   "type": "Feature",
   "id": "chapter-4/weg-kapitel-4-zum-bureau-klebinder",
   "geometry": {
    "type": "LineString",
    "coordinates": [
     [
      16.358371,
      48.223185
     ],
     [
      16.370745,
      48.217734
     ]
    ]
   },
   "properties": {
    "id": "chapter-4/weg-kapitel-4-zum-bureau-klebinder",
    "name": "Weg: Kapitel 4 — zum Bureau Klebinder",
    "description": "**Kapitel 4**\n🚶 Demba\n\nDer Weg Dembas im Kapitel 4: Aus dem Park zum Bureau Klebinder am Franz-Josefs-Kai.",
    "kapitel": "Kapitel 4",
    "confidence": "",
    "_umap_options": {
     "color": "#2c7a3f",
     "weight": 5
    }
   }
  },
  {
   "type": "Feature",
   "id": "chapter-5/weg-kapitel-5-heim-abstecher-pelerine",
   "geometry": {
    "type": "LineString",
    "coordinates": [
     [
      16.370745,
      48.217734
     ],
     [
      16.357318,
      48.227823
     ]
    ]
   },
   "properties": {
    "id": "chapter-5/weg-kapitel-5-heim-abstecher-pelerine",
    "name": "Weg: Kapitel 5 — Heim-Abstecher (Pelerine)",
    "description": "**Kapitel 5**\n🚶 Demba\n\nHeim-Abstecher: zurück nach Lichtental, um Antons Pelerine zu holen.",
    "kapitel": "Kapitel 5",
    "confidence": "",
    "_umap_options": {
     "color": "#c0392b",
     "weight": 5
    }
   }
  },
  {
   "type": "Feature",
   "id": "chapter-6/weg-kapitel-6-zum-telephon-berggasse",
   "geometry": {
    "type": "LineString",
    "coordinates": [
     [
      16.357318,
      48.227823
     ],
     [
      16.362898,
      48.218443
     ]
    ]
   },
   "properties": {
    "id": "chapter-6/weg-kapitel-6-zum-telephon-berggasse",
    "name": "Weg: Kapitel 6 — zum Telephon (Berggasse)",
    "description": "**Kapitel 6**\n🚶 Demba\n\nKapitel 6: Vom Zimmer (Lichtental) zur Telephonzelle in der Berggasse, von wo Demba Steffi anruft.",
    "kapitel": "Kapitel 6",
    "confidence": "",
    "_umap_options": {
     "color": "#16735b",
     "weight": 5
    }
   }
  },
  {
   "type": "Feature",
   "id": "chapter-7/weg-kapitel-7-ins-caf-hibernia",
   "geometry": {
    "type": "LineString",
    "coordinates": [
     [
      16.362898,
      48.218443
     ],
     [
      16.367374,
      48.215803
     ]
    ]
   },
   "properties": {
    "id": "chapter-7/weg-kapitel-7-ins-caf-hibernia",
    "name": "Weg: Kapitel 7 — ins Café Hibernia",
    "description": "**Kapitel 7**\n🚶 Demba\n\nVon Steffis Wohnung ins Café Hibernia (Café Schottenring).",
    "kapitel": "Kapitel 7",
    "confidence": "",
    "_umap_options": {
     "color": "#a67c00",
     "weight": 5
    }
   }
  },
  {
   "type": "Feature",
   "id": "chapter-8/weg-kapitel-8-caf-steffis-wohnung",
   "geometry": {
    "type": "LineString",
    "coordinates": [
     [
      16.367374,
      48.215803
     ],
     [
      16.362354,
      48.215744
     ]
    ]
   },
   "properties": {
    "id": "chapter-8/weg-kapitel-8-caf-steffis-wohnung",
    "name": "Weg: Kapitel 8 — Café → Steffis Wohnung",
    "description": "**Kapitel 8**\n🚶 Demba\n\nKapitel 8: Vom Café Hibernia den kurzen Weg hinüber zu Steffi Prokops Wohnung in der Kolingasse (Ankunft um zwölf Uhr).",
    "kapitel": "Kapitel 8",
    "confidence": "",
    "_umap_options": {
     "color": "#2980b9",
     "weight": 5
    }
   }
  },
  {
   "type": "Feature",
   "id": "chapter-16/weiners-wohnung-liechtensteinstra-e",
   "geometry": {
    "type": "Point",
    "coordinates": [
     16.360574,
     48.219717
    ]
   },
   "properties": {
    "id": "chapter-16/weiners-wohnung-liechtensteinstra-e",
    "name": "Weiners Wohnung (Liechtensteinstraße)",
    "description": "**Kapitel 16, 4, 8 · gegen halb 8 · straßengenau**\n🚶 Demba, Georg Weiner\n\nGeorg Weiners »Absteigquartier« in der Liechtensteinstraße (zweiter Stock, Fenster neben dem Balkon, »Ausblick auf den Liechtensteinpark« — daher am parknahen Abschnitt verortet, Hausnummer unbekannt). Die Adresse kehrt mehrfach wieder: Schon im Büro zielt Dembas Frage hierher (Kapitel 4), als »Absteigquartier« wird sie benannt (Kapitel 8), und gegen halb acht steht Demba selbst davor (Kapitel 16), Weiner tritt allein heraus, ruft einen Wagen und nennt dem vermeintlichen »Kollegen« arglos sein Ziel: den Residenzkeller. Pikant: dieselbe Straße, an deren Nordende das Arbeitsministerium residiert.\n\n> Daß dieser Herr Weiner gerade in der Liechtensteinstraße wohnte, das konnte kein Grund sein, um einen Umweg zu machen.",
    "kapitel": "Kapitel 16, 4, 8",
    "confidence": "medium",
    "_umap_options": {
     "color": "#6a5acd",
     "weight": 1
    }
   }
  },
  {
   "type": "Feature",
   "id": "chapter-14/wohnung-dr-becker-kohlmarkt",
   "geometry": {
    "type": "Point",
    "coordinates": [
     16.367924,
     48.208882
    ]
   },
   "properties": {
    "id": "chapter-14/wohnung-dr-becker-kohlmarkt",
    "name": "Wohnung Dr. Becker (Kohlmarkt)",
    "description": "**Kapitel 14 · gegen 5 · straßengenau**\n🚶 Demba, Elly Becker, Viky, Anny, Frau Dr. Becker\n\nVierter Stock eines neuen Hauses am Kohlmarkt, »Dozent Dr. R. Becker, ordiniert von zwei bis fünf«. Hausnummer unbekannt, Lage am Kohlmarkt ungefähr.\n\n> Dr. Becker wohnte am Kohlmarkt im vierten Stock eines neuen Hauses.",
    "kapitel": "Kapitel 14",
    "confidence": "medium",
    "_umap_options": {
     "color": "#7b3f00",
     "weight": 1
    }
   }
  },
  {
   "type": "Feature",
   "id": "chapter-11/wohnung-und-kanzlei-dr-hirsch",
   "geometry": {
    "type": "Point",
    "coordinates": [
     16.369653,
     48.215617
    ]
   },
   "properties": {
    "id": "chapter-11/wohnung-und-kanzlei-dr-hirsch",
    "name": "Wohnung und Kanzlei Dr. Hirsch",
    "description": "**Kapitel 11 · kurz nach 2 · straßengenau**\n🚶 Demba, Frau Dr. Hirsch, Dr. Hirsch\n\nBei der Familie des Hof- und Gerichtsadvokaten Dr. Hirsch, wo Demba die Söhne Georg und Erich unterrichtet, erbittet er den Monatsgehalt (80 Kronen) im Voraus. Die Eßlinggasse nennt der Text; Hausnummer unbekannt (vgl. auch Alexander Peer, Wiener Zeitung 2022).\n\n> Frau Dr. Hirsch, die Gattin des Hof- und Gerichtsadvokaten in der Eßlinggasse, kam ein wenig außer Atem in das Privatkontor ihres Mannes.\n\n[📖 Alexander Peer](https://www.wienerzeitung.at/h/ein-literarischer-spiegel-wiens)",
    "kapitel": "Kapitel 11",
    "confidence": "medium",
    "_umap_options": {
     "color": "#9b1d4f",
     "weight": 1
    }
   }
  }
 ]
}